{
    "links": {
        "self": "http://www.neowsapp.com/rest/v1/neo/3713934?api_key=iIulBulltgU6a56xZRHN4H3l9WmuAYTsLGpBGhQ2"
    },
    "id": "3713934",
    "neo_reference_id": "3713934",
    "name": "(2015 FR33)",
    "designation": "2015 FR33",
    "nasa_jpl_url": "http://ssd.jpl.nasa.gov/sbdb.cgi?sstr=3713934",
    "absolute_magnitude_h": 23.6,
    "estimated_diameter": {
        "kilometers": {
            "estimated_diameter_min": 0.0506471459,
            "estimated_diameter_max": 0.1132504611
        },
        "meters": {
            "estimated_diameter_min": 50.6471458835,
            "estimated_diameter_max": 113.2504610618
        },
        "miles": {
            "estimated_diameter_min": 0.0314706677,
            "estimated_diameter_max": 0.0703705522
        },
        "feet": {
            "estimated_diameter_min": 166.1651821003,
            "estimated_diameter_max": 371.5566426699
        }
    },
    "is_potentially_hazardous_asteroid": false,
    "close_approach_data": [
        {
            "close_approach_date": "2014-11-08",
            "close_approach_date_full": "2014-Nov-08 10:09",
            "epoch_date_close_approach": 1415441340000,
            "relative_velocity": {
                "kilometers_per_second": "13.476988193",
                "kilometers_per_hour": "48517.1574946236",
                "miles_per_hour": "30146.6748888121"
            },
            "miss_distance": {
                "astronomical": "0.4322789704",
                "lunar": "168.1565194856",
                "kilometers": "64668013.217633048",
                "miles": "40182840.1103821424"
            },
            "orbiting_body": "Earth"
        },
        {
            "close_approach_date": "2015-03-20",
            "close_approach_date_full": "2015-Mar-20 19:27",
            "epoch_date_close_approach": 1426879620000,
            "relative_velocity": {
                "kilometers_per_second": "11.8292045825",
                "kilometers_per_hour": "42585.136497122",
                "miles_per_hour": "26460.7477306701"
            },
            "miss_distance": {
                "astronomical": "0.1904752535",
                "lunar": "74.0948736115",
                "kilometers": "28494692.211310045",
                "miles": "17705780.712146821"
            },
            "orbiting_body": "Earth"
        },
        {
            "close_approach_date": "2018-03-19",
            "close_approach_date_full": "2018-Mar-19 12:19",
            "epoch_date_close_approach": 1521461940000,
            "relative_velocity": {
                "kilometers_per_second": "18.9472273041",
                "kilometers_per_hour": "68210.018294787",
                "miles_per_hour": "42383.0527565581"
            },
            "miss_distance": {
                "astronomical": "0.4892797277",
                "lunar": "190.3298140753",
                "kilometers": "73195205.098099999",
                "miles": "45481391.4478140262"
            },
            "orbiting_body": "Earth"
        },
        {
            "close_approach_date": "2193-09-30",
            "close_approach_date_full": "2193-Sep-30 09:42",
            "epoch_date_close_approach": 7060815720000,
            "relative_velocity": {
                "kilometers_per_second": "12.0099085734",
                "kilometers_per_hour": "43235.6708640838",
                "miles_per_hour": "26864.9644877414"
            },
            "miss_distance": {
                "astronomical": "0.0804559976",
                "lunar": "31.2973830664",
                "kilometers": "12036045.869685112",
                "miles": "7478852.1044420656"
            },
            "orbiting_body": "Mars"
        }
    ],
    "orbital_data": {
        "orbit_id": "6",
        "orbit_determination_date": "2017-04-06 08:35:02",
        "first_observation_date": "2015-03-17",
        "last_observation_date": "2015-03-29",
        "data_arc_in_days": 12,
        "observations_used": 13,
        "orbit_uncertainty": "8",
        "minimum_orbit_intersection": ".18158",
        "jupiter_tisserand_invariant": "4.812",
        "epoch_osculation": "2457099.5",
        "eccentricity": ".2003424929255003",
        "semi_major_axis": "1.33569480874851",
        "inclination": "22.63812845923396",
        "ascending_node_longitude": "7.173405082020763",
        "orbital_period": "563.8444162449889",
        "perihelion_distance": "1.068098380976184",
        "perihelion_argument": "110.992012257949",
        "aphelion_distance": "1.603291236520835",
        "perihelion_time": "2457032.938743063393",
        "mean_anomaly": "42.49763198287499",
        "mean_motion": ".6384740003234881",
        "equinox": "J2000",
        "orbit_class": {
            "orbit_class_type": "AMO",
            "orbit_class_description": "Near-Earth asteroid orbits similar to that of 1221 Amor",
            "orbit_class_range": "1.017 AU < q (perihelion) < 1.3 AU"
        }
    },
    "is_sentry_object": false
}